IRIDIUM 156             
1 43576U 18061H   26168.11743650  .00000218  00000+0  70607-4 0  9995
2 43576  86.3962  56.7587 0002053  82.3144 277.8285 14.34217038413360
IRIDIUM 164             
1 43577U 18061J   26168.09840753  .00000154  00000+0  48058-4 0  9999
2 43577  86.3960  56.8068 0002161  88.8772 271.2672 14.34216895413405
IRIDIUM 159             
1 43578U 18061K   26168.13646448  .00000052  00000+0  11674-4 0  9991
2 43578  86.3960  56.7278 0002281  83.8702 276.2754 14.34217581413374
IRIDIUM 180             
1 43922U 19002A   26168.48480185  .00000177  00000+0  56289-4 0  9991
2 43922  86.3970 353.4730 0002247  89.1379 271.0074 14.34217236389039
IRIDIUM 176             
1 43923U 19002B   26168.49876956  .00000601  00000+0  91299-4 0  9990
2 43923  86.6090 353.4107 0002292  92.8388 267.3092 14.72267339399293
IRIDIUM 168             
1 43924U 19002C   26168.47845748  .00000076  00000+0  19939-4 0  9991
2 43924  86.3973 353.5531 0002186  89.3519 270.7927 14.34218704389016
IRIDIUM 173             
1 43925U 19002D   26168.46577435  .00000135  00000+0  41218-4 0  9997
2 43925  86.3969 353.4473 0002179  87.1657 272.9788 14.34216776388999
IRIDIUM 169             
1 43926U 19002E   26168.53046688  .00000220  00000+0  65480-4 0  9999
2 43926  86.4224  25.0498 0001837  73.0270 287.1130 14.38609130390276
IRIDIUM 172             
1 43927U 19002F   26168.52919854  .00000144  00000+0  44351-4 0  9992
2 43927  86.3969 353.4287 0002253  88.7620 271.3834 14.34218634389018
IRIDIUM 175             
1 43928U 19002G   26168.41447352  .00000262  00000+0  71483-4 0  9997
2 43928  86.4513 290.4259 0002525 178.2407 181.8804 14.43612781399018
IRIDIUM 171             
1 43929U 19002H   26168.51017238 -.00000056  00000+0 -27142-4 0  9991
2 43929  86.3975 353.7428 0001931  90.8752 269.2665 14.34217402389008
IRIDIUM 170             
1 43930U 19002J   26168.50494990  .00000605  00000+0  91933-4 0  9993
2 43930  86.6091 353.4105 0002361  89.3107 270.8380 14.72267873399301
IRIDIUM 167             
1 43931U 19002K   26168.50382936  .00000014  00000+0 -20269-5 0  9990
2 43931  86.3967 353.4616 0001769  92.0454 268.0944 14.34217604389001
IRIDIUM 181             
1 56726U 23068S   26168.10645250  .00000277  00000+0  76414-4 0  9992
2 56726  86.4498  56.8243 0002358  88.5401 271.6070 14.43312412162422
IRIDIUM 177             
1 56727U 23068T   26168.52538470  .00000500  00000+0  62271-4 0  9999
2 56727  86.1964 328.6307 0002346  88.5551 271.5938 14.80224847166412
IRIDIUM 174             
1 56728U 23068U   26168.49261407  .00000622  00000+0  94770-4 0  9993
2 56728  86.6098 353.5631 0002459  84.1387 276.0110 14.72264223166063
IRIDIUM 178             
1 56729U 23068V   26168.10890536  .00000788  00000+0  10022-3 0  9993
2 56729  86.6537  25.3929 0002632  85.8423 274.3099 14.80233634166358
IRIDIUM 179             
1 56730U 23068W   26168.10350606  .00000707  00000+0  89586-4 0  9997
2 56730  86.6777  34.3753 0002465  88.7134 271.4370 14.80231047166352
